{
  "companies": [
    {
      "id": 1,
      "name": "社会福祉法人サクラ",
      "postCode": "001-0001",
      "address": "新潟県長岡市軽井沢671-2"
    },
    {
      "id": 2,
      "name": "社会福祉法人バラ",
      "postCode": "002-0002",
      "address": "京都府京都市南区西九条西柳ノ内町88-15"
    },
    {
      "id": 3,
      "name": "社会福祉法人アジサイ",
      "postCode": "003-0003",
      "address": "石川県能美市三ツ屋町910-10"
    },
    {
      "id": 4,
      "name": "社会福祉法人ガーベラ",
      "postCode": "004-0004",
      "address": "鹿児島県指宿市山川金生町92-10"
    },
    {
      "id": 5,
      "name": "社会福祉法人ヒマワリ",
      "postCode": "005-0005",
      "address": "愛知県稲沢市一色西町311-13"
    },
    {
      "id": 7,
      "name": "社会福祉法人キンモクセイ",
      "postCode": "006-0006",
      "address": "奈良県奈良市大倭町677-5"
    },
    {
      "id": 8,
      "name": "社会福祉法人アサガオ",
      "postCode": "007-0007",
      "address": "大阪府堺市中区辻之973-14"
    },
    {
      "id": 9,
      "name": "社会福祉法人カスミソウ",
      "postCode": "008-0008",
      "address": "香川県高松市宮脇町2-32-6"
    },
    {
      "id": 10,
      "name": "社会福祉法人ウメ",
      "postCode": "009-0009",
      "address": "秋田県能代市新山前456-10"
    },
    {
      "id": 11,
      "name": "社会福祉法人クリスマスローズ",
      "postCode": "010-0010",
      "address": "京都府京都市伏見区淀水垂町509-16"
    },
    {
      "id": 12,
      "name": "社会福祉法人ラベンダー",
      "postCode": "011-0011",
      "address": "栃木県那須塩原市鳥野目763-10"
    },
    {
      "id": 13,
      "name": "社会福祉法人リュウグウノオトヒメノモトユイノキリハズシ",
      "postCode": "012-0012",
      "address": "愛知県海部郡飛島村大字飛島新田字竹之郷ヨタレ南ノ割"
    }
  ],
  "offices": {
    "hospitals": [
      {
        "id": 1,
        "name": "bbb医院",
        "postCode": "0001234",
        "address": "xxx"
      },
      {
        "id": 2,
        "name": "aaa医院",
        "postCode": "0001234",
        "address": "xxx"
      },
      {
        "id": 3,
        "name": "aaa医院",
        "postCode": "0001234",
        "address": "xxx"
      },
      {
        "id": 4,
        "name": "aaa医院",
        "postCode": "0001234",
        "address": "xxx"
      },
      {
        "id": 5,
        "name": "aaa医院",
        "postCode": "0001234",
        "address": "xxx"
      },
      {
        "id": 6,
        "name": "aaa医院",
        "postCode": "0001234",
        "address": "xxx"
      }
    ],
    "careOffices": [
      {
        "id": 1,
        "name": "bbb介護",
        "postCode": "0001234",
        "address": "xxx"
      },
      {
        "id": 2,
        "name": "aaa介護",
        "postCode": "0001234",
        "address": "xxx"
      },
      {
        "id": 3,
        "name": "aaa介護",
        "postCode": "0001234",
        "address": "xxx"
      },
      {
        "id": 4,
        "name": "aaa介護",
        "postCode": "0001234",
        "address": "xxx"
      },
      {
        "id": 5,
        "name": "aaa介護",
        "postCode": "0001234",
        "address": "xxx"
      },
      {
        "id": 6,
        "name": "aaa介護",
        "postCode": "0001234",
        "address": "xxx"
      }
    ],
    "otherOffices": [
      {
        "id": 1,
        "name": "bbb",
        "postCode": "0001234",
        "address": "xxx"
      },
      {
        "id": 2,
        "name": "aaa",
        "postCode": "0001234",
        "address": "xxx"
      },
      {
        "id": 3,
        "name": "aaa",
        "postCode": "0001234",
        "address": "xxx"
      },
      {
        "id": 4,
        "name": "aaa",
        "postCode": "0001234",
        "address": "xxx"
      },
      {
        "id": 5,
        "name": "aaa",
        "postCode": "0001234",
        "address": "xxx"
      },
      {
        "id": 6,
        "name": "aaa",
        "postCode": "0001234",
        "address": "xxx"
      }
    ]
  },
  "newUser": [
    {
      "users[0][firstName]": "test",
      "users[0][lastName]": "test",
      "users[0][firstNameKana]": "tset",
      "users[0][lastNameKana]": "test",
      "users[0][email]": "test",
      "users[0][occupation]": "医師",
      "company[name]": "社会",
      "company[postCode]": "123-456",
      "company[address]": "Yakumo",
      "office[id]": "1",
      "office[name]": "bbb介護",
      "office[postCode]": "0001234",
      "office[address]": "xxx",
      "id": 1
    }
  ]
}